{
  "norad_id": 64955,
  "name": "STARLINK-34732",
  "history": [
    {
      "epoch": "2026-03-28T20:59:37.032288Z",
      "apogee_km": 551.3307130313706,
      "perigee_km": 547.6653013490659,
      "latitude_deg": 4.05806196969754e-05,
      "longitude_deg": 171.8182801559796,
      "height_km": 552.394577735699,
      "semi_major_axis_km": 6927.635007190218,
      "eccentricity": 0.00026455,
      "inclination_deg": 97.603,
      "raan_deg": 313.0115,
      "arg_perigee_deg": 84.861,
      "mean_anomaly_deg": 275.2919,
      "mean_motion_rev_day": 15.05654286
    },
    {
      "epoch": "2026-03-29T04:58:06.936672Z",
      "apogee_km": 551.2617298364576,
      "perigee_km": 547.7120153641372,
      "latitude_deg": 6.909636543763431e-05,
      "longitude_deg": 52.19375430573404,
      "height_km": 552.3447104032632,
      "semi_major_axis_km": 6927.623872600298,
      "eccentricity": 0.0002562,
      "inclination_deg": 97.6029,
      "raan_deg": 313.3391,
      "arg_perigee_deg": 83.4307,
      "mean_anomaly_deg": 276.7212,
      "mean_motion_rev_day": 15.05657916
    },
    {
      "epoch": "2026-03-30T01:42:14.794848Z",
      "apogee_km": 551.6208798379093,
      "perigee_km": 547.5376838613874,
      "latitude_deg": -1.452285109338338e-05,
      "longitude_deg": 101.16094610190757,
      "height_km": 552.3604604170445,
      "semi_major_axis_km": 6927.716281849648,
      "eccentricity": 0.0002947,
      "inclination_deg": 97.603,
      "raan_deg": 314.1906,
      "arg_perigee_deg": 82.1464,
      "mean_anomaly_deg": 278.0097,
      "mean_motion_rev_day": 15.0562779
    },
    {
      "epoch": "2026-03-30T04:53:38.706144Z",
      "apogee_km": 551.3732297575152,
      "perigee_km": 547.7163836390318,
      "latitude_deg": 3.571649576997988e-06,
      "longitude_deg": 53.31130582059363,
      "height_km": 552.3896996944989,
      "semi_major_axis_km": 6927.681806698273,
      "eccentricity": 0.00026393,
      "inclination_deg": 97.6028,
      "raan_deg": 314.3216,
      "arg_perigee_deg": 83.2205,
      "mean_anomaly_deg": 276.9322,
      "mean_motion_rev_day": 15.05639029
    },
    {
      "epoch": "2026-03-30T12:52:09.003648Z",
      "apogee_km": 551.3586438869243,
      "perigee_km": 547.6821361100519,
      "latitude_deg": 1.8657023440795763e-05,
      "longitude_deg": -66.31476040390132,
      "height_km": 552.2885800842423,
      "semi_major_axis_km": 6927.657389998488,
      "eccentricity": 0.00026535,
      "inclination_deg": 97.603,
      "raan_deg": 314.6493,
      "arg_perigee_deg": 80.8432,
      "mean_anomaly_deg": 279.3095,
      "mean_motion_rev_day": 15.05646989
    },
    {
      "epoch": "2026-03-30T20:50:39.016032Z",
      "apogee_km": 551.3019522027316,
      "perigee_km": 547.6898843991303,
      "latitude_deg": 7.952000919226003e-05,
      "longitude_deg": 174.05985854749872,
      "height_km": 552.1924350323014,
      "semi_major_axis_km": 6927.632918300931,
      "eccentricity": 0.0002607,
      "inclination_deg": 97.6028,
      "raan_deg": 314.9765,
      "arg_perigee_deg": 78.3622,
      "mean_anomaly_deg": 281.7898,
      "mean_motion_rev_day": 15.05654967
    },
    {
      "epoch": "2026-03-31T04:49:08.887584Z",
      "apogee_km": 551.3297376159035,
      "perigee_km": 547.6387010302478,
      "latitude_deg": -7.274168566174474e-06,
      "longitude_deg": 54.43568555622282,
      "height_km": 552.1866657509566,
      "semi_major_axis_km": 6927.621219323075,
      "eccentricity": 0.0002664,
      "inclination_deg": 97.6018,
      "raan_deg": 315.3043,
      "arg_perigee_deg": 78.8042,
      "mean_anomaly_deg": 281.3484,
      "mean_motion_rev_day": 15.05658781
    },
    {
      "epoch": "2026-04-01T20:41:37.835808Z",
      "apogee_km": 551.224781212848,
      "perigee_km": 547.6972483037325,
      "latitude_deg": 1.5447000150056508e-05,
      "longitude_deg": 176.31467106419458,
      "height_km": 552.0993353357652,
      "semi_major_axis_km": 6927.5980147582895,
      "eccentricity": 0.0002546,
      "inclination_deg": 97.6013,
      "raan_deg": 316.9415,
      "arg_perigee_deg": 76.1329,
      "mean_anomaly_deg": 284.0181,
      "mean_motion_rev_day": 15.05666346
    },
    {
      "epoch": "2026-04-02T20:37:06.778272Z",
      "apogee_km": 551.2283232472564,
      "perigee_km": 547.6143546130033,
      "latitude_deg": -4.416373631952838e-05,
      "longitude_deg": 177.4446333737615,
      "height_km": 551.9746588116913,
      "semi_major_axis_km": 6927.55833893013,
      "eccentricity": 0.00026084,
      "inclination_deg": 97.6014,
      "raan_deg": 317.9246,
      "arg_perigee_deg": 73.6831,
      "mean_anomaly_deg": 286.4682,
      "mean_motion_rev_day": 15.05679281
    },
    {
      "epoch": "2026-04-03T14:09:48.575520Z",
      "apogee_km": 551.1643225265334,
      "perigee_km": 547.7407077881426,
      "latitude_deg": 2.659263085658679e-05,
      "longitude_deg": -85.73077639684003,
      "height_km": 552.1619459451128,
      "semi_major_axis_km": 6927.589515157338,
      "eccentricity": 0.0002471,
      "inclination_deg": 97.6018,
      "raan_deg": 318.6439,
      "arg_perigee_deg": 78.1434,
      "mean_anomaly_deg": 282.007,
      "mean_motion_rev_day": 15.05669117
    },
    {
      "epoch": "2026-04-04T12:29:36.923136Z",
      "apogee_km": 551.3549253450965,
      "perigee_km": 547.6748181177954,
      "latitude_deg": 1.5823058004218332e-05,
      "longitude_deg": -60.682188372088454,
      "height_km": 552.4132351849076,
      "semi_major_axis_km": 6927.651871731446,
      "eccentricity": 0.00026561,
      "inclination_deg": 97.6013,
      "raan_deg": 319.561,
      "arg_perigee_deg": 84.9368,
      "mean_anomaly_deg": 275.2162,
      "mean_motion_rev_day": 15.05648788
    },
    {
      "epoch": "2026-04-05T14:00:49.278816Z",
      "apogee_km": 551.0664926413356,
      "perigee_km": 547.9532081467696,
      "latitude_deg": 4.804107389057786e-05,
      "longitude_deg": -83.48364936632056,
      "height_km": 552.2786079430321,
      "semi_major_axis_km": 6927.646850394052,
      "eccentricity": 0.0002247,
      "inclination_deg": 97.6021,
      "raan_deg": 320.6091,
      "arg_perigee_deg": 79.1604,
      "mean_anomaly_deg": 280.9876,
      "mean_motion_rev_day": 15.05650425
    },
    {
      "epoch": "2026-04-06T04:22:06.279168Z",
      "apogee_km": 550.7010148670452,
      "perigee_km": 548.0807467214136,
      "latitude_deg": 2.3646096281000645e-05,
      "longitude_deg": 61.19619037702464,
      "height_km": 551.9811999723107,
      "semi_major_axis_km": 6927.5278807942295,
      "eccentricity": 0.00018912,
      "inclination_deg": 97.6023,
      "raan_deg": 321.1993,
      "arg_perigee_deg": 68.8847,
      "mean_anomaly_deg": 291.2582,
      "mean_motion_rev_day": 15.05689211
    },
    {
      "epoch": "2026-04-07T12:16:06.746016Z",
      "apogee_km": 550.9401891810239,
      "perigee_km": 548.0804563661832,
      "latitude_deg": -2.253747690120587e-05,
      "longitude_deg": -57.30664399460976,
      "height_km": 552.2293026452329,
      "semi_major_axis_km": 6927.647322773603,
      "eccentricity": 0.0002064,
      "inclination_deg": 97.6034,
      "raan_deg": 322.5085,
      "arg_perigee_deg": 76.1269,
      "mean_anomaly_deg": 284.0187,
      "mean_motion_rev_day": 15.05650271
    },
    {
      "epoch": "2026-04-07T12:16:06.746880Z",
      "apogee_km": 550.9405355633908,
      "perigee_km": 548.0801099838172,
      "latitude_deg": -2.8084435947223817e-05,
      "longitude_deg": -57.30664686806214,
      "height_km": 552.2292195751256,
      "semi_major_axis_km": 6927.647322773603,
      "eccentricity": 0.00020645,
      "inclination_deg": 97.6034,
      "raan_deg": 322.5085,
      "arg_perigee_deg": 76.1269,
      "mean_anomaly_deg": 284.0187,
      "mean_motion_rev_day": 15.05650271
    },
    {
      "epoch": "2026-04-08T13:47:18.347424Z",
      "apogee_km": 550.706581071674,
      "perigee_km": 548.1823089447416,
      "latitude_deg": -6.517846084715168e-05,
      "longitude_deg": -80.10784535320111,
      "height_km": 552.6218260922911,
      "semi_major_axis_km": 6927.581445008207,
      "eccentricity": 0.00018219,
      "inclination_deg": 97.6027,
      "raan_deg": 323.5537,
      "arg_perigee_deg": 95.2311,
      "mean_anomaly_deg": 264.9123,
      "mean_motion_rev_day": 15.05671748
    },
    {
      "epoch": "2026-04-09T12:07:06.572352Z",
      "apogee_km": 550.9624993903617,
      "perigee_km": 548.0805934350537,
      "latitude_deg": -5.280446180440345e-05,
      "longitude_deg": -55.05635005709173,
      "height_km": 552.2509007024578,
      "semi_major_axis_km": 6927.658546412707,
      "eccentricity": 0.000208,
      "inclination_deg": 97.6037,
      "raan_deg": 324.4732,
      "arg_perigee_deg": 76.6618,
      "mean_anomaly_deg": 283.484,
      "mean_motion_rev_day": 15.05646612
    }
  ]
}